HERMES-4                
1 63833U 25052BP  26068.92081747  .00021364  00000+0  81237-3 0  9996
2 63833  97.4000 323.4610 0002652 154.9526 205.1842 15.26796135 54782
STARLINK-34140          
1 64085U 25107X   26068.38701486  .00022605  00000+0  82799-3 0  9999
2 64085  42.9957 203.2944 0000945 152.0067 208.0836 15.27598758 46053
